$$SOE
2461302.500000000, A.D. 2026-Sep-19 00:00:00.0000, -1.923700278318822E+08, 1.891405922616796E+08, 1.004859643254596E+08,
2461309.500000000, A.D. 2026-Sep-26 00:00:00.0000, -2.006124591826053E+08, 1.792494252480652E+08, 1.008488681283927E+08,
2461316.500000000, A.D. 2026-Oct-03 00:00:00.0000, -2.084443745805872E+08, 1.689915101793997E+08, 1.010053511086318E+08,
2461323.500000000, A.D. 2026-Oct-10 00:00:00.0000, -2.158471196309244E+08, 1.583857112359050E+08, 1.009538222116427E+08,
2461330.500000000, A.D. 2026-Oct-17 00:00:00.0000, -2.228026655122268E+08, 1.474518228077242E+08, 1.006930866342642E+08,
2461337.500000000, A.D. 2026-Oct-24 00:00:00.0000, -2.292936608127195E+08, 1.362105542542884E+08, 1.002223583596995E+08,
2461344.500000000, A.D. 2026-Oct-31 00:00:00.0000, -2.353034844335898E+08, 1.246835114601767E+08, 9.954127235659289E+07,
2461351.500000000, A.D. 2026-Nov-07 00:00:00.0000, -2.408162990722600E+08, 1.128931750468299E+08, 9.864989632507795E+07,
2461358.500000000, A.D. 2026-Nov-14 00:00:00.0000, -2.458171049096859E+08, 1.008628759158474E+08, 9.754874194408137E+07,
2461365.500000000, A.D. 2026-Nov-21 00:00:00.0000, -2.502917951140188E+08, 8.861676859936142E+07, 9.623877573618597E+07,
2461372.500000000, A.D. 2026-Nov-28 00:00:00.0000, -2.542272139381844E+08, 7.617979921699433E+07, 9.472142928879648E+07,
2461379.500000000, A.D. 2026-Dec-05 00:00:00.0000, -2.576112135343730E+08, 6.357766721200621E+07, 9.299860833103375E+07,
2461386.500000000, A.D. 2026-Dec-12 00:00:00.0000, -2.604327090186063E+08, 5.083678381311177E+07, 9.107270077340604E+07,
2461393.500000000, A.D. 2026-Dec-19 00:00:00.0000, -2.626817333564819E+08, 3.798422707308249E+07, 8.894658375280428E+07,
2461400.500000000, A.D. 2026-Dec-26 00:00:00.0000, -2.643494918799547E+08, 2.504769249650981E+07, 8.662362950103855E+07,
2461407.500000000, A.D. 2027-Jan-02 00:00:00.0000, -2.654284157921580E+08, 1.205543898024531E+07, 8.410770986714703E+07,
2461414.500000000, A.D. 2027-Jan-09 00:00:00.0000, -2.659122141479081E+08, -9.637699700111188E+05, 8.140319935209782E+07,
2461421.500000000, A.D. 2027-Jan-16 00:00:00.0000, -2.657959238592209E+08, -1.398072975822394E+07, 7.851497652298772E+07,
2461428.500000000, A.D. 2027-Jan-23 00:00:00.0000, -2.650759572459340E+08, -2.696586296531216E+07, 7.544842367115296E+07,
2461435.500000000, A.D. 2027-Jan-30 00:00:00.0000, -2.637501464880361E+08, -3.988929233481254E+07, 7.220942456397009E+07,
2461442.500000000, A.D. 2027-Feb-06 00:00:00.0000, -2.618177840724309E+08, -5.272091800792927E+07, 6.880436014650704E+07,
2461449.500000000, A.D. 2027-Feb-13 00:00:00.0000, -2.592796591879413E+08, -6.543049761951621E+07, 6.524010220476677E+07,
2461456.500000000, A.D. 2027-Feb-20 00:00:00.0000, -2.561380919252023E+08, -7.798772984556821E+07, 6.152400503280970E+07,
2461463.500000000, A.D. 2027-Feb-27 00:00:00.0000, -2.523969634099727E+08, -9.036234436965550E+07, 5.766389463794373E+07,
2461470.500000000, A.D. 2027-Mar-06 00:00:00.0000, -2.480617384090767E+08, -1.025241960234092E+08, 5.366805531497646E+07,
2461477.500000000, A.D. 2027-Mar-13 00:00:00.0000, -2.431394815726604E+08, -1.144433606460272E+08, 4.954521386075033E+07,
2461484.500000000, A.D. 2027-Mar-20 00:00:00.0000, -2.376388680068091E+08, -1.260902330334747E+08, 4.530452142618512E+07,
2461491.500000000, A.D. 2027-Mar-27 00:00:00.0000, -2.315701875664809E+08, -1.374356270227397E+08, 4.095553292417255E+07,
2461498.500000000, A.D. 2027-Apr-03 00:00:00.0000, -2.249453423051365E+08, -1.484508772086079E+08, 3.650818398068416E+07,
2461505.500000000, A.D. 2027-Apr-10 00:00:00.0000, -2.177778367074950E+08, -1.591079416684012E+08, 3.197276546112730E+07,
2461512.500000000, A.D. 2027-Apr-17 00:00:00.0000, -2.100827604246533E+08, -1.693795050638545E+08, 2.735989562935333E+07,
2461519.500000000, A.D. 2027-Apr-24 00:00:00.0000, -2.018767632380286E+08, -1.792390814991884E+08, 2.268049001260307E+07,
2461526.500000000, A.D. 2027-May-01 00:00:00.0000, -1.931780218283629E+08, -1.886611163880749E+08, 1.794572905641545E+07,
2461533.500000000, A.D. 2027-May-08 00:00:00.0000, -1.840061979866323E+08, -1.976210858274001E+08, 1.316702373451862E+07,
2461540.500000000, A.D. 2027-May-15 00:00:00.0000, -1.743823897690484E+08, -2.060955917454793E+08, 8.355979486887604E+06,
2461547.500000000, A.D. 2027-May-22 00:00:00.0000, -1.643290772259799E+08, -2.140624546369872E+08, 3.524358608890936E+06,
2461554.500000000, A.D. 2027-May-29 00:00:00.0000, -1.538700594948937E+08, -2.215008046050257E+08, -1.315959106875226E+06,
2461561.500000000, A.D. 2027-Jun-05 00:00:00.0000, -1.430303826208691E+08, -2.283911668733075E+08, -6.153017040758356E+06,
2461568.500000000, A.D. 2027-Jun-12 00:00:00.0000, -1.318362604681118E+08, -2.347155406667910E+08, -1.097482323261683E+07,
2461575.500000000, A.D. 2027-Jun-19 00:00:00.0000, -1.203149895053964E+08, -2.404574717532798E+08, -1.576939245015134E+07,
2461582.500000000, A.D. 2027-Jun-26 00:00:00.0000, -1.084948577100260E+08, -2.456021182953292E+08, -2.052478860253972E+07,
2461589.500000000, A.D. 2027-Jul-03 00:00:00.0000, -9.640504803836197E+07, -2.501363094445206E+08, -2.522916722205772E+07,
2461596.500000000, A.D. 2027-Jul-10 00:00:00.0000, -8.407553706366576E+07, -2.540485961827274E+08, -2.987081772186200E+07,
2461603.500000000, A.D. 2027-Jul-17 00:00:00.0000, -7.153698943854664E+07, -2.573292940397067E+08, -3.443820513874567E+07,
2461610.500000000, A.D. 2027-Jul-24 00:00:00.0000, -5.882064876363899E+07, -2.599705174205267E+08, -3.892001108378313E+07,
2461617.500000000, A.D. 2027-Jul-31 00:00:00.0000, -4.595822522315519E+07, -2.619662050661617E+08, -4.330517362923701E+07,
2461624.500000000, A.D. 2027-Aug-07 00:00:00.0000, -3.298178098598556E+07, -2.633121353466175E+08, -4.758292574042961E+07,
2461631.500000000, A.D. 2027-Aug-14 00:00:00.0000, -1.992361648605287E+07, -2.640059315814876E+08, -5.174283179847753E+07,
2461638.500000000, A.D. 2027-Aug-21 00:00:00.0000, -6.816157777131754E+06, -2.640470607858857E+08, -5.577482230098547E+07,
2461645.500000000, A.D. 2027-Aug-28 00:00:00.0000, 6.308157663686885E+06, -2.634368247697884E+08, -5.966922673691902E+07,
2461652.500000000, A.D. 2027-Sep-04 00:00:00.0000, 1.941699471409895E+07, -2.621783413091402E+08, -6.341680412905596E+07,
2461659.500000000, A.D. 2027-Sep-11 00:00:00.0000, 3.247823181217941E+07, -2.602765163494060E+08, -6.700877100332874E+07,
2461666.500000000, A.D. 2027-Sep-18 00:00:00.0000, 4.546006900443508E+07, -2.577380082658209E+08, -7.043682671260409E+07,
2461673.500000000, A.D. 2027-Sep-25 00:00:00.0000, 5.833113239443316E+07, -2.545711847003188E+08, -7.369317603423224E+07,
2461680.500000000, A.D. 2027-Oct-02 00:00:00.0000, 7.106057445096283E+07, -2.507860724472369E+08, -7.677054896666569E+07,
2461687.500000000, A.D. 2027-Oct-09 00:00:00.0000, 8.361816964730366E+07, -2.463943009394298E+08, -7.966221767681444E+07,
2461694.500000000, A.D. 2027-Oct-16 00:00:00.0000, 9.597440501705800E+07, -2.414090399816394E+08, -8.236201059000596E+07,
2461701.500000000, A.D. 2027-Oct-23 00:00:00.0000, 1.081005654791837E+08, -2.358449323688584E+08, -8.486432366208872E+07,
2461708.500000000, A.D. 2027-Oct-30 00:00:00.0000, 1.199688139670881E+08, -2.297180214358031E+08, -8.716412886173183E+07,
2461715.500000000, A.D. 2027-Nov-06 00:00:00.0000, 1.315522649285216E+08, -2.230456730751332E+08, -8.925697973113221E+07,
2461722.500000000, A.D. 2027-Nov-13 00:00:00.0000, 1.428250490110529E+08, -2.158464949652285E+08, -9.113901410014397E+07,
2461729.500000000, A.D. 2027-Nov-20 00:00:00.0000, 1.537623717040385E+08, -2.081402558505464E+08, -9.280695450356063E+07,
2461736.500000000, A.D. 2027-Nov-27 00:00:00.0000, 1.643405674894965E+08, -1.999478025566061E+08, -9.425810632677422E+07,
2461743.500000000, A.D. 2027-Dec-04 00:00:00.0000, 1.745371474754059E+08, -1.912909744472598E+08, -9.549035354593892E+07,
2461750.500000000, A.D. 2027-Dec-11 00:00:00.0000, 1.843308400248964E+08, -1.821925168719305E+08, -9.650215222583750E+07,
2461757.500000000, A.D. 2027-Dec-18 00:00:00.0000, 1.937016247888433E+08, -1.726759944906738E+08, -9.729252198285443E+07,
2461764.500000000, A.D. 2027-Dec-25 00:00:00.0000, 2.026307604816959E+08, -1.627657050013950E+08, -9.786103560509732E+07,
2461771.500000000, A.D. 2028-Jan-01 00:00:00.0000, 2.111008066657392E+08, -1.524865937495699E+08, -9.820780702213767E+07,
$$EOE